STARLINK-35138          
1 65420U 25192S   26068.75736704  .00037828  00000+0  10050-2 0  9992
2 65420  53.1584 232.1097 0000987  72.4425 287.6687 15.37923364 29397
KUIPER-00260            
1 67787U 26030Z   26068.62023347  .00034182  00000+0  95058-3 0  9992
2 67787  51.8799 219.3544 0001391  50.4119 309.6990 15.36527197  4992
