[{"OBJECT_NAME":"STARLINK-35138","OBJECT_ID":"2025-192S","EPOCH":"2026-03-09T18:10:36.513120","MEAN_MOTION":15.37923364,"ECCENTRICITY":9.874e-5,"INCLINATION":53.1584,"RA_OF_ASC_NODE":232.1097,"ARG_OF_PERICENTER":72.4425,"MEAN_ANOMALY":287.6687,"EPHEMERIS_TYPE":0,"CLASSIFICATION_TYPE":"U","NORAD_CAT_ID":65420,"ELEMENT_SET_NO":999,"REV_AT_EPOCH":2939,"BSTAR":0.0010050269,"MEAN_MOTION_DOT":0.00037828,"MEAN_MOTION_DDOT":0},{"OBJECT_NAME":"KUIPER-00260","OBJECT_ID":"2026-030Z","EPOCH":"2026-03-09T14:53:08.171808","MEAN_MOTION":15.36527197,"ECCENTRICITY":0.0001391,"INCLINATION":51.8799,"RA_OF_ASC_NODE":219.3544,"ARG_OF_PERICENTER":50.4119,"MEAN_ANOMALY":309.699,"EPHEMERIS_TYPE":0,"CLASSIFICATION_TYPE":"U","NORAD_CAT_ID":67787,"ELEMENT_SET_NO":999,"REV_AT_EPOCH":499,"BSTAR":0.00095058,"MEAN_MOTION_DOT":0.00034182,"MEAN_MOTION_DDOT":0}]
